{
  "norad_id": 59864,
  "name": "STARLINK-31931",
  "history": [
    {
      "epoch": "2026-04-11T06:15:11.399040Z",
      "apogee_km": 483.9140038807709,
      "perigee_km": 482.28651840242856,
      "latitude_deg": 9.89896070154055e-07,
      "longitude_deg": 161.09881897988527,
      "height_km": 482.7649817723438,
      "semi_major_axis_km": 6861.237261141599,
      "eccentricity": 0.0001186,
      "inclination_deg": 43.0019,
      "raan_deg": 94.3789,
      "arg_perigee_deg": 277.9125,
      "mean_anomaly_deg": 82.1592,
      "mean_motion_rev_day": 15.27562913
    },
    {
      "epoch": "2026-04-13T05:19:51.877344Z",
      "apogee_km": 483.9755300357301,
      "perigee_km": 482.16760157863973,
      "latitude_deg": -4.8559506961588046e-05,
      "longitude_deg": 161.9170839222614,
      "height_km": 482.8206293095744,
      "semi_major_axis_km": 6861.208565807185,
      "eccentricity": 0.00013175,
      "inclination_deg": 43.0015,
      "raan_deg": 83.2993,
      "arg_perigee_deg": 271.7589,
      "mean_anomaly_deg": 88.3111,
      "mean_motion_rev_day": 15.27572496
    },
    {
      "epoch": "2026-04-14T08:00:29.640096Z",
      "apogee_km": 483.8602242923607,
      "perigee_km": 481.8806864213411,
      "latitude_deg": 3.506242587911163e-05,
      "longitude_deg": 114.3876373773605,
      "height_km": 482.6889661848586,
      "semi_major_axis_km": 6861.007455356851,
      "eccentricity": 0.00014426,
      "inclination_deg": 43.0017,
      "raan_deg": 77.0227,
      "arg_perigee_deg": 267.5911,
      "mean_anomaly_deg": 92.4776,
      "mean_motion_rev_day": 15.27639661
    },
    {
      "epoch": "2026-04-15T07:32:51.600768Z",
      "apogee_km": 483.9235293574957,
      "perigee_km": 482.20644494819044,
      "latitude_deg": 2.0446126097537567e-05,
      "longitude_deg": 114.78999044205827,
      "height_km": 482.91008612544465,
      "semi_major_axis_km": 6861.201987152843,
      "eccentricity": 0.00012513,
      "inclination_deg": 43.0018,
      "raan_deg": 71.4833,
      "arg_perigee_deg": 265.4347,
      "mean_anomaly_deg": 94.6362,
      "mean_motion_rev_day": 15.27574693
    },
    {
      "epoch": "2026-04-16T03:56:53.809152Z",
      "apogee_km": 483.90573345429584,
      "perigee_km": 482.2188389977846,
      "latitude_deg": -5.1124947797216776e-06,
      "longitude_deg": 163.14273984738676,
      "height_km": 482.8942934204344,
      "semi_major_axis_km": 6861.1992862260395,
      "eccentricity": 0.00012293,
      "inclination_deg": 43.0022,
      "raan_deg": 66.6831,
      "arg_perigee_deg": 266.2467,
      "mean_anomaly_deg": 93.8244,
      "mean_motion_rev_day": 15.27575595
    },
    {
      "epoch": "2026-04-17T22:19:07.499424Z",
      "apogee_km": 483.8264379742104,
      "perigee_km": 482.32081391445354,
      "latitude_deg": -2.0222474759369398e-05,
      "longitude_deg": -124.12520976161544,
      "height_km": 482.9099742776302,
      "semi_major_axis_km": 6861.210625944332,
      "eccentricity": 0.00010972,
      "inclination_deg": 43.0015,
      "raan_deg": 56.7123,
      "arg_perigee_deg": 265.4481,
      "mean_anomaly_deg": 94.6245,
      "mean_motion_rev_day": 15.27571808
    },
    {
      "epoch": "2026-04-18T20:17:18.570912Z",
      "apogee_km": 484.0491695818828,
      "perigee_km": 482.03472744259943,
      "latitude_deg": -3.3929124690430405e-05,
      "longitude_deg": -99.741920747616,
      "height_km": 482.7922340203213,
      "semi_major_axis_km": 6861.178948512241,
      "eccentricity": 0.0001468,
      "inclination_deg": 43.004,
      "raan_deg": 51.544,
      "arg_perigee_deg": 271.5318,
      "mean_anomaly_deg": 88.5365,
      "mean_motion_rev_day": 15.27582387
    },
    {
      "epoch": "2026-04-19T05:42:14.015808Z",
      "apogee_km": 483.9717353131591,
      "perigee_km": 482.06845033560967,
      "latitude_deg": -2.3471330674272245e-05,
      "longitude_deg": 116.42149290837504,
      "height_km": 482.93219675887525,
      "semi_major_axis_km": 6861.157092824385,
      "eccentricity": 0.0001387,
      "inclination_deg": 43.0028,
      "raan_deg": 49.3251,
      "arg_perigee_deg": 261.8366,
      "mean_anomaly_deg": 98.2328,
      "mean_motion_rev_day": 15.27589686
    },
    {
      "epoch": "2026-04-20T05:14:36.221856Z",
      "apogee_km": 483.9817121312317,
      "perigee_km": 482.1895607785891,
      "latitude_deg": -1.8390002638774352e-06,
      "longitude_deg": 116.82705635130307,
      "height_km": 482.8380907295048,
      "semi_major_axis_km": 6861.22263645491,
      "eccentricity": 0.0001306,
      "inclination_deg": 43.0026,
      "raan_deg": 43.7899,
      "arg_perigee_deg": 271.5644,
      "mean_anomaly_deg": 88.5058,
      "mean_motion_rev_day": 15.27567797
    },
    {
      "epoch": "2026-04-21T04:46:56.413056Z",
      "apogee_km": 483.9521137365682,
      "perigee_km": 482.10412752297816,
      "latitude_deg": 4.421949644976083e-05,
      "longitude_deg": 117.23706321635572,
      "height_km": 482.7895466050146,
      "semi_major_axis_km": 6861.165120629773,
      "eccentricity": 0.00013467,
      "inclination_deg": 43.0037,
      "raan_deg": 38.2507,
      "arg_perigee_deg": 270.9699,
      "mean_anomaly_deg": 89.0999,
      "mean_motion_rev_day": 15.27587005
    },
    {
      "epoch": "2026-04-22T04:19:17.036256Z",
      "apogee_km": 483.9162661818709,
      "perigee_km": 482.17256553684365,
      "latitude_deg": -7.093786363611097e-06,
      "longitude_deg": 117.64526104112241,
      "height_km": 482.84376920951314,
      "semi_major_axis_km": 6861.181415859357,
      "eccentricity": 0.00012707,
      "inclination_deg": 43.0042,
      "raan_deg": 32.7116,
      "arg_perigee_deg": 268.5347,
      "mean_anomaly_deg": 91.5359,
      "mean_motion_rev_day": 15.27581563
    },
    {
      "epoch": "2026-04-23T03:51:38.814624Z",
      "apogee_km": 483.85043934459736,
      "perigee_km": 482.3117425755181,
      "latitude_deg": -1.231293545954852e-05,
      "longitude_deg": 118.04938189378524,
      "height_km": 482.8417005430214,
      "semi_major_axis_km": 6861.218090960057,
      "eccentricity": 0.00011213,
      "inclination_deg": 43.0034,
      "raan_deg": 27.1732,
      "arg_perigee_deg": 271.2095,
      "mean_anomaly_deg": 88.8628,
      "mean_motion_rev_day": 15.27569315
    },
    {
      "epoch": "2026-04-25T17:03:44.087616Z",
      "apogee_km": 483.9248319490898,
      "perigee_km": 482.1738571939559,
      "latitude_deg": 1.431674739050553e-05,
      "longitude_deg": -96.8870177891172,
      "height_km": 482.76547072085094,
      "semi_major_axis_km": 6861.186344571523,
      "eccentricity": 0.0001276,
      "inclination_deg": 43.0045,
      "raan_deg": 12.7722,
      "arg_perigee_deg": 273.9939,
      "mean_anomaly_deg": 86.0767,
      "mean_motion_rev_day": 15.27579917
    },
    {
      "epoch": "2026-04-25T23:20:21.342336Z",
      "apogee_km": 484.00836147314294,
      "perigee_km": 482.08064391814514,
      "latitude_deg": 1.842660321740987e-06,
      "longitude_deg": 167.22315304083457,
      "height_km": 482.76338408280606,
      "semi_major_axis_km": 6861.181502695644,
      "eccentricity": 0.00014048,
      "inclination_deg": 43.0045,
      "raan_deg": 11.2954,
      "arg_perigee_deg": 273.4696,
      "mean_anomaly_deg": 86.5995,
      "mean_motion_rev_day": 15.27581534
    },
    {
      "epoch": "2026-04-27T09:51:48.523392Z",
      "apogee_km": 483.92610799869,
      "perigee_km": 482.21217870408054,
      "latitude_deg": -5.2490142839729405e-06,
      "longitude_deg": -0.18046723824428618,
      "height_km": 482.6852734764817,
      "semi_major_axis_km": 6861.2061433513845,
      "eccentricity": 0.0001249,
      "inclination_deg": 43.0056,
      "raan_deg": 3.1729,
      "arg_perigee_deg": 280.8337,
      "mean_anomaly_deg": 79.2374,
      "mean_motion_rev_day": 15.27573305
    },
    {
      "epoch": "2026-04-28T01:33:23.085792Z",
      "apogee_km": 483.8819423391915,
      "perigee_km": 482.2961757724215,
      "latitude_deg": -5.166947630788571e-05,
      "longitude_deg": 120.08708789700087,
      "height_km": 482.93435071590557,
      "semi_major_axis_km": 6861.226059055806,
      "eccentricity": 0.00011556,
      "inclination_deg": 43.005,
      "raan_deg": 359.479,
      "arg_perigee_deg": 265.0623,
      "mean_anomaly_deg": 95.0096,
      "mean_motion_rev_day": 15.27566654
    },
    {
      "epoch": "2026-04-29T08:56:29.856192Z",
      "apogee_km": 484.46874228251545,
      "perigee_km": 481.67074217303525,
      "latitude_deg": -1.7716836822477982e-05,
      "longitude_deg": 0.6294699210883036,
      "height_km": 483.2920386998469,
      "semi_major_axis_km": 6861.206742227775,
      "eccentricity": 0.0002039,
      "inclination_deg": 43.0088,
      "raan_deg": 352.0885,
      "arg_perigee_deg": 251.4852,
      "mean_anomaly_deg": 108.5778,
      "mean_motion_rev_day": 15.27573105
    },
    {
      "epoch": "2026-04-30T14:45:28.951488Z",
      "apogee_km": 483.8623657519365,
      "perigee_km": 482.26274568751523,
      "latitude_deg": 4.162466377105776e-05,
      "longitude_deg": -94.85151400234932,
      "height_km": 482.7266805428573,
      "semi_major_axis_km": 6861.199555719725,
      "eccentricity": 0.00011657,
      "inclination_deg": 43.0041,
      "raan_deg": 345.0782,
      "arg_perigee_deg": 278.1104,
      "mean_anomaly_deg": 81.9616,
      "mean_motion_rev_day": 15.27575505
    },
    {
      "epoch": "2026-05-02T07:33:32.645952Z",
      "apogee_km": 483.36949276263385,
      "perigee_km": 482.76021803787444,
      "latitude_deg": 1.4523843115557089e-05,
      "longitude_deg": 1.8545226676198565,
      "height_km": 482.90125769194213,
      "semi_major_axis_km": 6861.201855400254,
      "eccentricity": 4.44e-05,
      "inclination_deg": 43.0037,
      "raan_deg": 335.4753,
      "arg_perigee_deg": 258.6102,
      "mean_anomaly_deg": 101.47,
      "mean_motion_rev_day": 15.27574737
    }
  ]
}